[{"OBJECT_NAME":"STARLINK-34868","OBJECT_ID":"2025-210AC","EPOCH":"2026-03-09T23:23:43.151136","MEAN_MOTION":15.30210745,"ECCENTRICITY":0.0001607,"INCLINATION":53.1624,"RA_OF_ASC_NODE":305.8244,"ARG_OF_PERICENTER":113.3533,"MEAN_ANOMALY":246.7637,"EPHEMERIS_TYPE":0,"CLASSIFICATION_TYPE":"U","NORAD_CAT_ID":65648,"ELEMENT_SET_NO":999,"REV_AT_EPOCH":2777,"BSTAR":0.0020620157,"MEAN_MOTION_DOT":0.00061237,"MEAN_MOTION_DDOT":0},{"OBJECT_NAME":"OBJECT BD","OBJECT_ID":"2025-313BD","EPOCH":"2026-03-09T15:06:44.992224","MEAN_MOTION":15.3000236,"ECCENTRICITY":0.00072867,"INCLINATION":97.397,"RA_OF_ASC_NODE":145.285,"ARG_OF_PERICENTER":333.4514,"MEAN_ANOMALY":26.6352,"EPHEMERIS_TYPE":0,"CLASSIFICATION_TYPE":"U","NORAD_CAT_ID":67299,"ELEMENT_SET_NO":999,"REV_AT_EPOCH":1083,"BSTAR":0.0027633805,"MEAN_MOTION_DOT":0.0008101,"MEAN_MOTION_DDOT":0}]
